H1 CPF 01  gfz 2021 04 21 00  6111 terrasarx 
H2 0702601  6201 31698    2021 04 21 00 59 42 2021 04 26 00 00 42   120 1 1  0 0 0
H9
10 0 59326  49662.000000  0   -2592547.579  -3646721.958  -5245057.475
10 0 59326  49782.000000  0   -2351139.355  -2937203.622  -5777477.208
10 0 59326  49902.000000  0   -2056111.116  -2181412.492  -6208929.059
10 0 59326  50022.000000  0   -1711925.430  -1393394.965  -6531964.033
10 0 59326  50142.000000  0   -1324131.484   -587641.123  -6741017.033
10 0 59326  50262.000000  0    -899275.636    221178.637  -6832491.815
10 0 59326  50382.000000  0    -444792.238   1018474.490  -6804815.706
10 0 59326  50502.000000  0      31123.929   1789993.574  -6658463.501
10 0 59326  50622.000000  0     519660.410   2522067.924  -6395950.795
10 0 59326  50742.000000  0    1011546.527   3201852.771  -6021797.488
10 0 59326  50862.000000  0    1497225.529   3817550.417  -5542457.297
10 0 59326  50982.000000  0    1967036.063   4358615.407  -4966216.785
10 0 59326  51102.000000  0    2411401.816   4815939.677  -4303064.104
10 0 59326  51222.000000  0    2821025.021   5182013.591  -3564525.785
10 0 59326  51342.000000  0    3187079.862   5451058.017  -2763474.840
10 0 59326  51462.000000  0    3501402.749   5619125.592  -1913911.729
10 0 59326  51582.000000  0    3756673.880   5684166.686  -1030720.946
10 0 59326  51702.000000  0    3946585.080   5646058.694   -129407.564
10 0 59326  51822.000000  0    4065989.558   5506596.562    774180.771
10 0 59326  51942.000000  0    4111029.746   5269443.855   1664140.225
10 0 59326  52062.000000  0    4079239.373   4940046.460   2524797.856
10 0 59326  52182.000000  0    3969618.751   4525512.690   3340997.331
10 0 59326  52302.000000  0    3782677.154   4034456.566   4098373.444
10 0 59326  52422.000000  0    3520446.426   3476814.773   4783607.683
10 0 59326  52542.000000  0    3186462.868   2863641.388   5384666.265
10 0 59326  52662.000000  0    2785715.528   2206881.451   5891009.795
10 0 59326  52782.000000  0    2324569.379   1519133.395   6293771.936
10 0 59326  52902.000000  0    1810660.972    813403.535   6585909.527
10 0 59326  53022.000000  0    1252768.578    102858.615   6762318.806
10 0 59326  53142.000000  0     660660.382   -599418.458   6819919.732
10 0 59326  53262.000000  0      44922.882  -1280669.744   6757707.491
10 0 59326  53382.000000  0    -583228.631  -1928693.873   6576768.472
10 0 59326  53502.000000  0   -1212154.177  -2532064.617   6280261.588
10 0 59326  53622.000000  0   -1830002.855  -3080332.219   5873365.130
10 0 59326  53742.000000  0   -2424934.009  -3564205.797   5363193.130
10 0 59326  53862.000000  0   -2985345.816  -3975715.351   4758679.087
10 0 59326  53982.000000  0   -3500105.969  -4308348.508   4070424.947
10 0 59326  54102.000000  0   -3958776.419  -4557158.390   3310518.002
10 0 59326  54222.000000  0   -4351827.911  -4718841.314   2492320.122
10 0 59326  54342.000000  0   -4670841.306  -4791782.879   1630232.155
10 0 59326  54462.000000  0   -4908690.148  -4776069.496    739435.829
10 0 59326  54582.000000  0   -5059699.101  -4673465.022   -164380.271
10 0 59326  54702.000000  0   -5119774.607  -4487353.290  -1065305.477
10 0 59326  54822.000000  0   -5086503.681  -4222647.544  -1947496.950
10 0 59326  54942.000000  0   -4959217.513  -3885668.222  -2795467.145
10 0 59326  55062.000000  0   -4739018.934  -3483993.761  -3594360.874
10 0 59326  55182.000000  0   -4428774.890  -3026289.507  -4330217.169
10 0 59326  55302.000000  0   -4033074.328  -2522118.662  -4990211.821
10 0 59326  55422.000000  0   -3558152.593  -1981739.955  -5562875.526
10 0 59326  55542.000000  0   -3011785.487  -1415897.356  -6038284.736
10 0 59326  55662.000000  0   -2403155.715   -835605.986  -6408223.308
10 0 59326  55782.000000  0   -1742693.754   -251938.978  -6666313.233
10 0 59326  55902.000000  0   -1041897.142    324180.376  -6808112.427
10 0 59326  56022.000000  0    -313133.228    882177.509  -6831182.176
10 0 59326  56142.000000  0     430574.299   1412015.832  -6735124.453
10 0 59326  56262.000000  0    1175771.343   1904371.907  -6521589.186
10 0 59326  56382.000000  0    1908812.124   2350796.966  -6194250.461
10 0 59326  56502.000000  0    2616104.254   2743860.687  -5758749.932
10 0 59326  56622.000000  0    3284357.612   3077275.082  -5222608.254
10 0 59326  56742.000000  0    3900832.211   3345996.936  -4595107.122
10 0 59326  56862.000000  0    4453583.773   3546308.053  -3887140.153
10 0 59326  56982.000000  0    4931700.511   3675869.682  -3111032.858
10 0 59326  57102.000000  0    5325524.509   3733749.936  -2280334.131
10 0 59326  57222.000000  0    5626853.925   3720424.275  -1409583.076
10 0 59326  57342.000000  0    5829120.587   3637746.661   -514053.392
10 0 59326  57462.000000  0    5927537.525   3488892.396    390518.253
10 0 59326  57582.000000  0    5919213.222   3278273.680   1288215.491
10 0 59326  57702.000000  0    5803227.584   3011429.238   2163230.963
10 0 59326  57822.000000  0    5580668.127   2694891.868   3000153.175
10 0 59326  57942.000000  0    5254625.688   2336036.401   3784246.690
10 0 59326  58062.000000  0    4830148.052   1942911.698   4501717.712
10 0 59326  58182.000000  0    4314154.912   1524062.020   5139957.898
10 0 59326  58302.000000  0    3715319.438   1088342.447   5687766.477
10 0 59326  58422.000000  0    3043912.139    644731.808   6135545.164
10 0 59326  58542.000000  0    2311616.420    202148.111   6475458.733
10 0 59326  58662.000000  0    1531321.497   -230728.708   6701565.615
10 0 59326  58782.000000  0     716892.897   -645625.903   6809917.680
10 0 59326  58902.000000  0    -117076.409  -1034835.463   6798624.800
10 0 59326  59022.000000  0    -955527.485  -1391356.552   6667884.900
10 0 59326  59142.000000  0   -1783206.513  -1709021.590   6419979.666
10 0 59326  59262.000000  0   -2584940.221  -1982602.363   6059236.192
10 0 59326  59382.000000  0   -3345912.776  -2207896.052   5591958.565
10 0 59326  59502.000000  0   -4051944.080  -2381791.762   5026325.499
10 0 59326  59622.000000  0   -4689759.338  -2502313.962   4372251.729
10 0 59326  59742.000000  0   -5247244.998  -2568641.549   3641217.939
10 0 59326  59862.000000  0   -5713685.818  -2581102.117   2846072.068
10 0 59326  59982.000000  0   -6079979.217  -2541142.593   2000804.782
10 0 59326  60102.000000  0   -6338822.191  -2451277.299   1120300.699
10 0 59326  60222.000000  0   -6484862.969  -2315011.847    220068.794
10 0 59326  60342.000000  0   -6514813.926  -2136745.787   -684038.222
10 0 59326  60462.000000  0   -6427523.965  -1921656.594  -1576112.923
10 0 59326  60582.000000  0   -6224005.837  -1675568.229  -2440481.950
10 0 59326  60702.000000  0   -5907420.203  -1404807.896  -3261987.728
10 0 59326  60822.000000  0   -5483017.380  -1116054.714  -4026257.788
10 0 59326  60942.000000  0   -4958038.991   -816184.145  -4719956.440
10 0 59326  61062.000000  0   -4341582.309   -512111.651  -5331014.190
10 0 59326  61182.000000  0   -3644430.535   -210640.034  -5848830.743
10 0 59326  61302.000000  0   -2878854.412     81686.626  -6264448.360
10 0 59326  61422.000000  0   -2058390.711    358719.007  -6570694.650
10 0 59326  61542.000000  0   -1197600.923    614825.653  -6762295.199
10 0 59326  61662.000000  0    -311814.766    845002.429  -6835954.447
10 0 59326  61782.000000  0     583136.954   1044966.959  -6790404.929
10 0 59326  61902.000000  0    1471197.175   1211235.103  -6626428.360
10 0 59326  62022.000000  0    2336365.206   1341180.872  -6346845.342
10 0 59326  62142.000000  0    3162979.851   1433077.773  -5956471.742
10 0 59326  62262.000000  0    3935999.089   1486120.393  -5462042.986
10 0 59326  62382.000000  0    4641272.288   1500426.617  -4872109.219
10 0 59326  62502.000000  0    5265803.250   1477020.619  -4196899.263
10 0 59326  62622.000000  0    5797996.445   1417796.092  -3448152.855
10 0 59326  62742.000000  0    6227881.400   1325460.182  -2638924.903
10 0 59326  62862.000000  0    6547311.649   1203459.329  -1783363.440
10 0 59326  62982.000000  0    6750131.751   1055888.386   -896462.716
10 0 59326  63102.000000  0    6832306.576    887384.195      6202.930
10 0 59326  63222.000000  0    6792008.601    703007.274    908758.569
10 0 59326  63342.000000  0    6629663.076    508114.182   1795314.757
10 0 59326  63462.000000  0    6347948.034    308222.530   2650257.189
10 0 59326  63582.000000  0    5951746.744    108873.649   3458530.243
10 0 59326  63702.000000  0    5448056.750    -84504.599   4205908.963
10 0 59326  63822.000000  0    4845857.321   -266729.190   4879252.295
10 0 59326  63942.000000  0    4155940.232   -432987.110   5466736.426
10 0 59326  64062.000000  0    3390704.742   -578949.987   5958059.862
10 0 59326  64182.000000  0    2563926.438   -700874.668   6344619.186
10 0 59326  64302.000000  0    1690503.187   -795689.510   6619653.848
10 0 59326  64422.000000  0     786182.672   -861064.206   6778359.655
10 0 59326  64542.000000  0    -132724.702   -895461.864   6817967.145
10 0 59326  64662.000000  0   -1049639.911   -898172.428   6737785.586
10 0 59326  64782.000000  0   -1948013.092   -869327.134   6539213.646
10 0 59326  64902.000000  0   -2811620.498   -809893.088   6225716.174
10 0 59326  65022.000000  0   -3624856.802   -721648.531   5802768.854
10 0 59326  65142.000000  0   -4373020.228   -607139.440   5277769.497
10 0 59326  65262.000000  0   -5042584.479   -469618.314   4659914.975
10 0 59326  65382.000000  0   -5621450.996   -312965.662   3960044.677
10 0 59326  65502.000000  0   -6099176.281   -141595.932   3190453.263
10 0 59326  65622.000000  0   -6467169.722     39650.322   2364676.698
10 0 59326  65742.000000  0   -6718858.858    225626.164   1497252.845
10 0 59326  65862.000000  0   -6849815.509    411005.968    603460.326
10 0 59326  65982.000000  0   -6857839.393    590418.285   -300958.362
10 0 59326  66102.000000  0   -6742996.312    758580.935  -1200083.482
99
